start=new Date('2022-03-30T00:00:00.000Z').valueOf();
sats=[{"MEAN_MOTION_DDOT":"0.0000000000000","BSTAR":"0.00006620000000","TLE_LINE1":"1 46166U 20057BB  22088.85930451  .00000705  00000-0  66200-4 0  9992","EPOCH":"2022-03-29T20:37:23.909664","MEAN_MOTION_DOT":"0.00000705","ELEMENT_SET_NO":"999","TLE_LINE2":"2 46166  53.0544 304.7525 0001258  66.0254 294.0866 15.06390805 88908","ARG_OF_PERICENTER":"66.0254","SEMIMAJOR_AXIS":"6925.377","PERIAPSIS":"546.371","REF_FRAME":"TEME","REV_AT_EPOCH":"8890","OBJECT_ID":"2020-057BB","INCLINATION":"53.0544","ECCENTRICITY":"0.00012580","DECAY_DATE":null,"LAUNCH_DATE":"2020-08-18","MEAN_MOTION":"15.06390805","PERIOD":"95.593","CLASSIFICATION_TYPE":"U","CENTER_NAME":"EARTH","SITE":"AFETR","RCS_SIZE":"LARGE","RA_OF_ASC_NODE":"304.7525","GP_ID":"200017626","COUNTRY_CODE":"US","EPHEMERIS_TYPE":"0","NORAD_CAT_ID":"46166","APOAPSIS":"548.113","TIME_SYSTEM":"UTC","MEAN_ANOMALY":"294.0866","MEAN_ELEMENT_THEORY":"SGP4","FILE":"3379484","OBJECT_TYPE":"PAYLOAD","OBJECT_NAME":"STARLINK-1615"},{"MEAN_MOTION":"15.06397905","PERIOD":"95.592","LAUNCH_DATE":"2020-08-18","ECCENTRICITY":"0.00015590","INCLINATION":"53.0531","DECAY_DATE":null,"RA_OF_ASC_NODE":"304.7026","GP_ID":"200018378","RCS_SIZE":"LARGE","SITE":"AFETR","CENTER_NAME":"EARTH","CLASSIFICATION_TYPE":"U","NORAD_CAT_ID":"46167","APOAPSIS":"548.300","TIME_SYSTEM":"UTC","EPHEMERIS_TYPE":"0","COUNTRY_CODE":"US","OBJECT_NAME":"STARLINK-1626","OBJECT_TYPE":"PAYLOAD","MEAN_ELEMENT_THEORY":"SGP4","FILE":"3379484","MEAN_ANOMALY":"296.7745","EPOCH":"2022-03-29T20:58:36.905664","TLE_LINE1":"1 46167U 20057BC  22088.87403826  .00001518  00000-0  12076-3 0  9990","BSTAR":"0.00012076000000","MEAN_MOTION_DDOT":"0.0000000000000","MEAN_MOTION_DOT":"0.00001518","SEMIMAJOR_AXIS":"6925.355","ARG_OF_PERICENTER":"63.3403","ELEMENT_SET_NO":"999","TLE_LINE2":"2 46167  53.0531 304.7026 0001559  63.3403 296.7745 15.06397905 88904","OBJECT_ID":"2020-057BC","REF_FRAME":"TEME","REV_AT_EPOCH":"8890","PERIAPSIS":"546.140"},{"EPOCH":"2022-03-29T20:16:07.588128","TLE_LINE1":"1 46168U 20057BD  22088.84453227  .00001545  00000-0  12261-3 0  9994","MEAN_MOTION_DDOT":"0.0000000000000","BSTAR":"0.00012261000000","MEAN_MOTION_DOT":"0.00001545","SEMIMAJOR_AXIS":"6925.357","ARG_OF_PERICENTER":"69.1715","TLE_LINE2":"2 46168  53.0536 254.8184 0001654  69.1715 290.9451 15.06397308 89599","ELEMENT_SET_NO":"999","OBJECT_ID":"2020-057BD","REV_AT_EPOCH":"8959","REF_FRAME":"TEME","PERIAPSIS":"546.076","PERIOD":"95.592","MEAN_MOTION":"15.06397308","LAUNCH_DATE":"2020-08-18","DECAY_DATE":null,"ECCENTRICITY":"0.00016540","INCLINATION":"53.0536","GP_ID":"200018626","RA_OF_ASC_NODE":"254.8184","SITE":"AFETR","RCS_SIZE":"LARGE","CLASSIFICATION_TYPE":"U","CENTER_NAME":"EARTH","TIME_SYSTEM":"UTC","NORAD_CAT_ID":"46168","APOAPSIS":"548.367","EPHEMERIS_TYPE":"0","COUNTRY_CODE":"US","OBJECT_NAME":"STARLINK-1627","OBJECT_TYPE":"PAYLOAD","FILE":"3379484","MEAN_ELEMENT_THEORY":"SGP4","MEAN_ANOMALY":"290.9451"},{"TIME_SYSTEM":"UTC","APOAPSIS":"550.780","NORAD_CAT_ID":"46169","EPHEMERIS_TYPE":"0","COUNTRY_CODE":"US","OBJECT_NAME":"STARLINK-1628","OBJECT_TYPE":"PAYLOAD","FILE":"3379484","MEAN_ELEMENT_THEORY":"SGP4","MEAN_ANOMALY":"284.6356","PERIOD":"95.644","MEAN_MOTION":"15.05583090","LAUNCH_DATE":"2020-08-18","DECAY_DATE":null,"INCLINATION":"53.0007","ECCENTRICITY":"0.00015320","GP_ID":"200016877","RA_OF_ASC_NODE":"304.4939","RCS_SIZE":"LARGE","SITE":"AFETR","CLASSIFICATION_TYPE":"U","CENTER_NAME":"EARTH","SEMIMAJOR_AXIS":"6927.853","ARG_OF_PERICENTER":"75.4802","TLE_LINE2":"2 46169  53.0007 304.4939 0001532  75.4802 284.6356 15.05583090 88873","ELEMENT_SET_NO":"999","OBJECT_ID":"2020-057BE","REV_AT_EPOCH":"8887","REF_FRAME":"TEME","PERIAPSIS":"548.657","EPOCH":"2022-03-29T21:57:46.022400","TLE_LINE1":"1 46169U 20057BE  22088.91511600  .00000453  00000-0  50251-4 0  9992","MEAN_MOTION_DDOT":"0.0000000000000","BSTAR":"0.00005025100000","MEAN_MOTION_DOT":"0.00000453"},{"CLASSIFICATION_TYPE":"U","CENTER_NAME":"EARTH","RCS_SIZE":"LARGE","SITE":"AFETR","RA_OF_ASC_NODE":"284.7937","GP_ID":"200017127","ECCENTRICITY":"0.00016000","INCLINATION":"53.0542","DECAY_DATE":null,"LAUNCH_DATE":"2020-08-18","MEAN_MOTION":"15.06392929","PERIOD":"95.593","MEAN_ANOMALY":"294.3204","MEAN_ELEMENT_THEORY":"SGP4","FILE":"3379484","OBJECT_TYPE":"PAYLOAD","OBJECT_NAME":"STARLINK-1633","COUNTRY_CODE":"US","EPHEMERIS_TYPE":"0","APOAPSIS":"548.343","NORAD_CAT_ID":"46171","TIME_SYSTEM":"UTC","MEAN_MOTION_DOT":"-0.00000913","MEAN_MOTION_DDOT":"0.0000000000000","BSTAR":"-0.00004238100000","TLE_LINE1":"1 46171U 20057BG  22088.85008624 -.00000913  00000-0 -42381-4 0  9993","EPOCH":"2022-03-29T20:24:07.451136","PERIAPSIS":"546.127","REF_FRAME":"TEME","REV_AT_EPOCH":"9043","OBJECT_ID":"2020-057BG","ELEMENT_SET_NO":"999","TLE_LINE2":"2 46171  53.0542 284.7937 0001600  65.7952 294.3204 15.06392929 90437","ARG_OF_PERICENTER":"65.7952","SEMIMAJOR_AXIS":"6925.370"},{"COUNTRY_CODE":"US","EPHEMERIS_TYPE":"0","NORAD_CAT_ID":"46172","APOAPSIS":"548.239","TIME_SYSTEM":"UTC","MEAN_ANOMALY":"281.2864","MEAN_ELEMENT_THEORY":"SGP4","FILE":"3379484","OBJECT_TYPE":"PAYLOAD","OBJECT_NAME":"STARLINK-1635","INCLINATION":"53.0521","ECCENTRICITY":"0.00014650","DECAY_DATE":null,"LAUNCH_DATE":"2020-08-18","MEAN_MOTION":"15.06396492","PERIOD":"95.592","CLASSIFICATION_TYPE":"U","CENTER_NAME":"EARTH","SITE":"AFETR","RCS_SIZE":"LARGE","RA_OF_ASC_NODE":"284.7411","GP_ID":"200017879","ELEMENT_SET_NO":"999","TLE_LINE2":"2 46172  53.0521 284.7411 0001465  78.8290 281.2864 15.06396492 90437","ARG_OF_PERICENTER":"78.8290","SEMIMAJOR_AXIS":"6925.359","PERIAPSIS":"546.210","REF_FRAME":"TEME","REV_AT_EPOCH":"9043","OBJECT_ID":"2020-057BH","BSTAR":"-0.00038040000000","MEAN_MOTION_DDOT":"0.0000000000000","TLE_LINE1":"1 46172U 20057BH  22088.86482082 -.00005942  00000-0 -38040-3 0  9992","EPOCH":"2022-03-29T20:45:20.518848","MEAN_MOTION_DOT":"-0.00005942"},{"DECAY_DATE":null,"ECCENTRICITY":"0.00016820","INCLINATION":"53.0544","LAUNCH_DATE":"2020-08-18","PERIOD":"95.593","MEAN_MOTION":"15.06392426","CENTER_NAME":"EARTH","CLASSIFICATION_TYPE":"U","RCS_SIZE":"LARGE","SITE":"AFETR","GP_ID":"200018127","RA_OF_ASC_NODE":"304.5352","COUNTRY_CODE":"US","EPHEMERIS_TYPE":"0","TIME_SYSTEM":"UTC","APOAPSIS":"548.402","NORAD_CAT_ID":"46173","MEAN_ANOMALY":"305.6738","FILE":"3379484","MEAN_ELEMENT_THEORY":"SGP4","OBJECT_TYPE":"PAYLOAD","OBJECT_NAME":"STARLINK-1640","BSTAR":"-0.00006921800000","MEAN_MOTION_DDOT":"0.0000000000000","TLE_LINE1":"1 46173U 20057BJ  22088.91089540 -.00001312  00000-0 -69218-4 0  9990","EPOCH":"2022-03-29T21:51:41.362560","MEAN_MOTION_DOT":"-0.00001312","TLE_LINE2":"2 46173  53.0544 304.5352 0001682  54.4408 305.6738 15.06392426 88903","ELEMENT_SET_NO":"999","ARG_OF_PERICENTER":"54.4408","SEMIMAJOR_AXIS":"6925.372","PERIAPSIS":"546.072","REV_AT_EPOCH":"8890","REF_FRAME":"TEME","OBJECT_ID":"2020-057BJ"},{"MEAN_MOTION_DDOT":"0.0000000000000","BSTAR":"0.00002428400000","EPOCH":"2022-03-29T22:02:19.858560","TLE_LINE1":"1 46174U 20057BK  22088.91828540  .00000080  00000-0  24284-4 0  9995","MEAN_MOTION_DOT":"0.00000080","ARG_OF_PERICENTER":"61.3386","ELEMENT_SET_NO":"999","TLE_LINE2":"2 46174  53.0557 304.4979 0001730  61.3386 298.7776 15.06385739 88901","SEMIMAJOR_AXIS":"6925.392","REF_FRAME":"TEME","REV_AT_EPOCH":"8890","PERIAPSIS":"546.059","OBJECT_ID":"2020-057BK","LAUNCH_DATE":"2020-08-18","ECCENTRICITY":"0.00017300","INCLINATION":"53.0557","DECAY_DATE":null,"MEAN_MOTION":"15.06385739","PERIOD":"95.593","RCS_SIZE":"LARGE","SITE":"AFETR","CLASSIFICATION_TYPE":"U","CENTER_NAME":"EARTH","RA_OF_ASC_NODE":"304.4979","GP_ID":"200017377","EPHEMERIS_TYPE":"0","COUNTRY_CODE":"US","APOAPSIS":"548.455","NORAD_CAT_ID":"46174","TIME_SYSTEM":"UTC","MEAN_ELEMENT_THEORY":"SGP4","FILE":"3379484","MEAN_ANOMALY":"298.7776","OBJECT_NAME":"STARLINK-1641","OBJECT_TYPE":"PAYLOAD"},{"MEAN_ELEMENT_THEORY":"SGP4","FILE":"3379484","MEAN_ANOMALY":"305.1719","OBJECT_NAME":"STARLINK-1734","OBJECT_TYPE":"PAYLOAD","EPHEMERIS_TYPE":"0","COUNTRY_CODE":"US","APOAPSIS":"548.399","NORAD_CAT_ID":"46325","TIME_SYSTEM":"UTC","RCS_SIZE":"LARGE","SITE":"AFETR","CENTER_NAME":"EARTH","CLASSIFICATION_TYPE":"U","RA_OF_ASC_NODE":"319.4483","GP_ID":"200018390","LAUNCH_DATE":"2020-09-03","ECCENTRICITY":"0.00016500","INCLINATION":"53.0548","DECAY_DATE":null,"MEAN_MOTION":"15.06386136","PERIOD":"95.593","REF_FRAME":"TEME","REV_AT_EPOCH":"8839","PERIAPSIS":"546.113","OBJECT_ID":"2020-062A","ARG_OF_PERICENTER":"54.9425","ELEMENT_SET_NO":"999","TLE_LINE2":"2 46325  53.0548 319.4483 0001650  54.9425 305.1719 15.06386136 88393","SEMIMAJOR_AXIS":"6925.391","MEAN_MOTION_DOT":"-0.00001611","BSTAR":"-0.00008930300000","MEAN_MOTION_DDOT":"0.0000000000000","EPOCH":"2022-03-29T22:18:54.082368","TLE_LINE1":"1 46325U 20062A   22088.92979262 -.00001611  00000-0 -89303-4 0  9994"},{"GP_ID":"200018638","RA_OF_ASC_NODE":"4.5498","SITE":"AFETR","RCS_SIZE":"LARGE","CENTER_NAME":"EARTH","CLASSIFICATION_TYPE":"U","PERIOD":"95.592","MEAN_MOTION":"15.06394529","LAUNCH_DATE":"2020-09-03","DECAY_DATE":null,"ECCENTRICITY":"0.00016520","INCLINATION":"53.0567","OBJECT_NAME":"STARLINK-1654","OBJECT_TYPE":"PAYLOAD","FILE":"3379484","MEAN_ELEMENT_THEORY":"SGP4","MEAN_ANOMALY":"300.7577","TIME_SYSTEM":"UTC","NORAD_CAT_ID":"46326","APOAPSIS":"548.374","EPHEMERIS_TYPE":"0","COUNTRY_CODE":"US","MEAN_MOTION_DOT":"-0.00000840","EPOCH":"2022-03-29T21:42:21.958848","TLE_LINE1":"1 46326U 20062B   22088.90442082 -.00000840  00000-0 -37510-4 0  9994","MEAN_MOTION_DDOT":"0.0000000000000","BSTAR":"-0.00003751000000","OBJECT_ID":"2020-062B","REV_AT_EPOCH":"8715","REF_FRAME":"TEME","PERIAPSIS":"546.086","SEMIMAJOR_AXIS":"6925.365","ARG_OF_PERICENTER":"59.3574","TLE_LINE2":"2 46326  53.0567   4.5498 0001652  59.3574 300.7577 15.06394529 87150","ELEMENT_SET_NO":"999"}];
